start=new Date('2022-10-09T00:00:00.000Z').valueOf();
sats=[{"MEAN_MOTION":"15.06397078","TLE_LINE1":"1 46782U 20074AV  22281.83526648  .00001272  00000-0  10425-3 0  9994","PERIOD":"95.592","ELEMENT_SET_NO":"999","CLASSIFICATION_TYPE":"U","APOAPSIS":"548.144","EPOCH":"2022-10-08T20:02:47.023872","MEAN_ELEMENT_THEORY":"SGP4","LAUNCH_DATE":"2020-10-24","ECCENTRICITY":"0.00013310","RCS_SIZE":"LARGE","OBJECT_ID":"2020-074AV","MEAN_ANOMALY":"260.0425","CENTER_NAME":"EARTH","REV_AT_EPOCH":"10873","SEMIMAJOR_AXIS":"6925.358","MEAN_MOTION_DDOT":"0.0000000000000","REF_FRAME":"TEME","FILE":"3596607","INCLINATION":"53.0544","MEAN_MOTION_DOT":"0.00001272","COUNTRY_CODE":"US","ARG_OF_PERICENTER":"100.0714","OBJECT_TYPE":"PAYLOAD","DECAY_DATE":null,"EPHEMERIS_TYPE":"0","OBJECT_NAME":"STARLINK-1835","RA_OF_ASC_NODE":"153.4599","TLE_LINE2":"2 46782  53.0544 153.4599 0001331 100.0714 260.0425 15.06397078108731","NORAD_CAT_ID":"46782","PERIAPSIS":"546.301","SITE":"AFETR","GP_ID":"214504108","BSTAR":"0.00010425000000","TIME_SYSTEM":"UTC"},{"OBJECT_NAME":"STARLINK-1851","RA_OF_ASC_NODE":"153.3951","EPHEMERIS_TYPE":"0","COUNTRY_CODE":"US","ARG_OF_PERICENTER":"95.2667","MEAN_MOTION_DOT":"0.00002657","DECAY_DATE":null,"OBJECT_TYPE":"PAYLOAD","INCLINATION":"53.0523","GP_ID":"214480680","TIME_SYSTEM":"UTC","BSTAR":"0.00019723000000","PERIAPSIS":"546.219","SITE":"AFETR","TLE_LINE2":"2 46783  53.0523 153.3951 0001454  95.2667 264.8488 15.06395877108464","NORAD_CAT_ID":"46783","EPOCH":"2022-10-08T20:24:00.791424","MEAN_ELEMENT_THEORY":"SGP4","CLASSIFICATION_TYPE":"U","APOAPSIS":"548.233","ELEMENT_SET_NO":"999","PERIOD":"95.592","MEAN_MOTION":"15.06395877","TLE_LINE1":"1 46783U 20074AW  22281.85000916  .00002657  00000-0  19723-3 0  9990","FILE":"3596476","REV_AT_EPOCH":"10846","SEMIMAJOR_AXIS":"6925.361","MEAN_MOTION_DDOT":"0.0000000000000","REF_FRAME":"TEME","RCS_SIZE":"LARGE","OBJECT_ID":"2020-074AW","CENTER_NAME":"EARTH","MEAN_ANOMALY":"264.8488","LAUNCH_DATE":"2020-10-24","ECCENTRICITY":"0.00014540"},{"TLE_LINE2":"2 46784  53.0528 153.6527 0001350  91.8343 268.2800 15.06408669108729","NORAD_CAT_ID":"46784","PERIAPSIS":"546.252","SITE":"AFETR","GP_ID":"214505111","BSTAR":"0.00011271000000","TIME_SYSTEM":"UTC","INCLINATION":"53.0528","MEAN_MOTION_DOT":"0.00001398","COUNTRY_CODE":"US","ARG_OF_PERICENTER":"91.8343","DECAY_DATE":null,"OBJECT_TYPE":"PAYLOAD","EPHEMERIS_TYPE":"0","OBJECT_NAME":"STARLINK-1882","RA_OF_ASC_NODE":"153.6527","LAUNCH_DATE":"2020-10-24","ECCENTRICITY":"0.00013500","RCS_SIZE":"LARGE","CENTER_NAME":"EARTH","OBJECT_ID":"2020-074AX","MEAN_ANOMALY":"268.2800","REV_AT_EPOCH":"10872","SEMIMAJOR_AXIS":"6925.322","MEAN_MOTION_DDOT":"0.0000000000000","REF_FRAME":"TEME","FILE":"3596607","MEAN_MOTION":"15.06408669","TLE_LINE1":"1 46784U 20074AX  22281.78639295  .00001398  00000-0  11271-3 0  9992","ELEMENT_SET_NO":"999","PERIOD":"95.592","CLASSIFICATION_TYPE":"U","APOAPSIS":"548.122","EPOCH":"2022-10-08T18:52:24.350880","MEAN_ELEMENT_THEORY":"SGP4"},{"GP_ID":"214505861","TIME_SYSTEM":"UTC","BSTAR":"0.00060679000000","PERIAPSIS":"546.355","SITE":"AFETR","TLE_LINE2":"2 46785  53.0535 153.4374 0001336 119.7815 240.3306 15.06378218108733","NORAD_CAT_ID":"46785","OBJECT_NAME":"STARLINK-1883","RA_OF_ASC_NODE":"153.4374","EPHEMERIS_TYPE":"0","MEAN_MOTION_DOT":"0.00008763","COUNTRY_CODE":"US","ARG_OF_PERICENTER":"119.7815","DECAY_DATE":null,"OBJECT_TYPE":"PAYLOAD","INCLINATION":"53.0535","FILE":"3596607","SEMIMAJOR_AXIS":"6925.415","REV_AT_EPOCH":"10873","REF_FRAME":"TEME","MEAN_MOTION_DDOT":"0.0000000000000","RCS_SIZE":"LARGE","CENTER_NAME":"EARTH","OBJECT_ID":"2020-074AY","MEAN_ANOMALY":"240.3306","LAUNCH_DATE":"2020-10-24","ECCENTRICITY":"0.00013360","EPOCH":"2022-10-08T20:08:06.288288","MEAN_ELEMENT_THEORY":"SGP4","APOAPSIS":"548.206","CLASSIFICATION_TYPE":"U","ELEMENT_SET_NO":"999","PERIOD":"95.594","MEAN_MOTION":"15.06378218","TLE_LINE1":"1 46785U 20074AY  22281.83896167  .00008763  00000-0  60679-3 0  9991"},{"CLASSIFICATION_TYPE":"U","APOAPSIS":"548.148","EPOCH":"2022-10-08T19:38:53.740320","MEAN_ELEMENT_THEORY":"SGP4","MEAN_MOTION":"15.06404969","TLE_LINE1":"1 46786U 20074AZ  22281.81867755  .00005310  00000-0  37508-3 0  9991","PERIOD":"95.592","ELEMENT_SET_NO":"999","REV_AT_EPOCH":"10901","SEMIMAJOR_AXIS":"6925.333","MEAN_MOTION_DDOT":"0.0000000000000","REF_FRAME":"TEME","FILE":"3596607","LAUNCH_DATE":"2020-10-24","ECCENTRICITY":"0.00013710","RCS_SIZE":"LARGE","OBJECT_ID":"2020-074AZ","CENTER_NAME":"EARTH","MEAN_ANOMALY":"250.2094","EPHEMERIS_TYPE":"0","OBJECT_NAME":"STARLINK-1893","RA_OF_ASC_NODE":"133.5415","INCLINATION":"53.0527","COUNTRY_CODE":"US","ARG_OF_PERICENTER":"109.9043","MEAN_MOTION_DOT":"0.00005310","DECAY_DATE":null,"OBJECT_TYPE":"PAYLOAD","GP_ID":"214504608","BSTAR":"0.00037508000000","TIME_SYSTEM":"UTC","TLE_LINE2":"2 46786  53.0527 133.5415 0001371 109.9043 250.2094 15.06404969109012","NORAD_CAT_ID":"46786","PERIAPSIS":"546.249","SITE":"AFETR"},{"MEAN_MOTION":"15.06394819","TLE_LINE1":"1 46787U 20074BA  22281.81131246  .00000583  00000-0  58058-4 0  9992","ELEMENT_SET_NO":"999","PERIOD":"95.592","CLASSIFICATION_TYPE":"U","APOAPSIS":"548.184","EPOCH":"2022-10-08T19:28:17.396544","MEAN_ELEMENT_THEORY":"SGP4","LAUNCH_DATE":"2020-10-24","ECCENTRICITY":"0.00013790","RCS_SIZE":"LARGE","OBJECT_ID":"2020-074BA","CENTER_NAME":"EARTH","MEAN_ANOMALY":"250.2497","REV_AT_EPOCH":"10901","SEMIMAJOR_AXIS":"6925.364","MEAN_MOTION_DDOT":"0.0000000000000","REF_FRAME":"TEME","FILE":"3596607","INCLINATION":"53.0539","ARG_OF_PERICENTER":"109.8641","COUNTRY_CODE":"US","MEAN_MOTION_DOT":"0.00000583","OBJECT_TYPE":"PAYLOAD","DECAY_DATE":null,"EPHEMERIS_TYPE":"0","OBJECT_NAME":"STARLINK-1899","RA_OF_ASC_NODE":"133.5622","TLE_LINE2":"2 46787  53.0539 133.5622 0001379 109.8641 250.2497 15.06394819109016","NORAD_CAT_ID":"46787","PERIAPSIS":"546.274","SITE":"AFETR","GP_ID":"214504361","BSTAR":"0.00005805800000","TIME_SYSTEM":"UTC"},{"COUNTRY_CODE":"US","MEAN_MOTION_DOT":"0.00000179","ARG_OF_PERICENTER":"81.2236","OBJECT_TYPE":"PAYLOAD","DECAY_DATE":null,"INCLINATION":"53.0521","OBJECT_NAME":"STARLINK-1929","RA_OF_ASC_NODE":"133.2977","EPHEMERIS_TYPE":"0","PERIAPSIS":"546.168","SITE":"AFETR","TLE_LINE2":"2 46788  53.0521 133.2977 0001510  81.2236 278.8923 15.06399975109027","NORAD_CAT_ID":"46788","GP_ID":"214505611","BSTAR":"0.00003093900000","TIME_SYSTEM":"UTC","PERIOD":"95.592","ELEMENT_SET_NO":"999","MEAN_MOTION":"15.06399975","TLE_LINE1":"1 46788U 20074BB  22281.87028164  .00000179  00000-0  30939-4 0  9992","EPOCH":"2022-10-08T20:53:12.333696","MEAN_ELEMENT_THEORY":"SGP4","CLASSIFICATION_TYPE":"U","APOAPSIS":"548.259","RCS_SIZE":"LARGE","OBJECT_ID":"2020-074BB","CENTER_NAME":"EARTH","MEAN_ANOMALY":"278.8923","LAUNCH_DATE":"2020-10-24","ECCENTRICITY":"0.00015100","FILE":"3596607","REV_AT_EPOCH":"10902","SEMIMAJOR_AXIS":"6925.349","MEAN_MOTION_DDOT":"0.0000000000000","REF_FRAME":"TEME"},{"TLE_LINE1":"1 46789U 20074BC  22281.82699707  .00000442  00000-0  48548-4 0  9993","MEAN_MOTION":"15.06390245","ELEMENT_SET_NO":"999","PERIOD":"95.593","CLASSIFICATION_TYPE":"U","APOAPSIS":"548.214","MEAN_ELEMENT_THEORY":"SGP4","EPOCH":"2022-10-08T19:50:52.546848","ECCENTRICITY":"0.00014020","LAUNCH_DATE":"2020-10-24","CENTER_NAME":"EARTH","OBJECT_ID":"2020-074BC","MEAN_ANOMALY":"292.2571","RCS_SIZE":"LARGE","MEAN_MOTION_DDOT":"0.0000000000000","REF_FRAME":"TEME","REV_AT_EPOCH":"10859","SEMIMAJOR_AXIS":"6925.378","FILE":"3596607","INCLINATION":"53.0540","OBJECT_TYPE":"PAYLOAD","DECAY_DATE":null,"ARG_OF_PERICENTER":"67.8567","COUNTRY_CODE":"US","MEAN_MOTION_DOT":"0.00000442","EPHEMERIS_TYPE":"0","RA_OF_ASC_NODE":"163.6646","OBJECT_NAME":"STARLINK-1930","NORAD_CAT_ID":"46789","TLE_LINE2":"2 46789  53.0540 163.6646 0001402  67.8567 292.2571 15.06390245108597","SITE":"AFETR","PERIAPSIS":"546.273","BSTAR":"0.00004854800000","TIME_SYSTEM":"UTC","GP_ID":"214505362"},{"OBJECT_TYPE":"PAYLOAD","DECAY_DATE":null,"ARG_OF_PERICENTER":"115.7978","COUNTRY_CODE":"US","MEAN_MOTION_DOT":"0.00000089","INCLINATION":"53.0520","RA_OF_ASC_NODE":"163.3661","OBJECT_NAME":"STARLINK-1931","EPHEMERIS_TYPE":"0","SITE":"AFETR","PERIAPSIS":"546.521","NORAD_CAT_ID":"46790","TLE_LINE2":"2 46790  53.0520 163.3661 0001013 115.7978 244.3116 15.06396932108275","BSTAR":"0.00002489100000","TIME_SYSTEM":"UTC","GP_ID":"214481694","PERIOD":"95.592","ELEMENT_SET_NO":"999","TLE_LINE1":"1 46790U 20074BD  22281.85645986  .00000089  00000-0  24891-4 0  9990","MEAN_MOTION":"15.06396932","MEAN_ELEMENT_THEORY":"SGP4","EPOCH":"2022-10-08T20:33:18.131904","CLASSIFICATION_TYPE":"U","APOAPSIS":"547.924","MEAN_ANOMALY":"244.3116","CENTER_NAME":"EARTH","OBJECT_ID":"2020-074BD","RCS_SIZE":"LARGE","ECCENTRICITY":"0.00010130","LAUNCH_DATE":"2020-10-24","FILE":"3596517","MEAN_MOTION_DDOT":"0.0000000000000","REF_FRAME":"TEME","REV_AT_EPOCH":"10827","SEMIMAJOR_AXIS":"6925.358"},{"TIME_SYSTEM":"UTC","BSTAR":"0.00008858100000","GP_ID":"214474416","SITE":"AFETR","PERIAPSIS":"546.350","NORAD_CAT_ID":"46791","TLE_LINE2":"2 46791  53.0546 167.4696 0001303 103.2785 256.8349 15.06387471108462","RA_OF_ASC_NODE":"167.4696","OBJECT_NAME":"STARLINK-1933","EPHEMERIS_TYPE":"0","OBJECT_TYPE":"PAYLOAD","DECAY_DATE":null,"COUNTRY_CODE":"US","ARG_OF_PERICENTER":"103.2785","MEAN_MOTION_DOT":"0.00001038","INCLINATION":"53.0546","FILE":"3596390","MEAN_MOTION_DDOT":"0.0000000000000","REF_FRAME":"TEME","REV_AT_EPOCH":"10846","SEMIMAJOR_AXIS":"6925.387","OBJECT_ID":"2020-074BE","MEAN_ANOMALY":"256.8349","CENTER_NAME":"EARTH","RCS_SIZE":"LARGE","ECCENTRICITY":"0.00013030","LAUNCH_DATE":"2020-10-24","MEAN_ELEMENT_THEORY":"SGP4","EPOCH":"2022-10-07T22:36:59.205024","CLASSIFICATION_TYPE":"U","APOAPSIS":"548.154","PERIOD":"95.593","ELEMENT_SET_NO":"999","TLE_LINE1":"1 46791U 20074BE  22280.94235191  .00001038  00000-0  88581-4 0  9994","MEAN_MOTION":"15.06387471"}];
